[
    {
        "Altitude(m)": 612513.9552326868,
        "Argument of Periapsis(deg)": 0.0,
        "Eccentricity": 0.0,
        "Inclination(deg)": 60.0,
        "Latitude(deg)": -28.136039693150252,
        "Longitude(deg)": -117.08691391784274,
        "Mean Anomaly(deg)": 212.72729999999999,
        "RAAN(deg)": 145.0,
        "Satellite Name": "Test1 651",
        "Satellite Number": 651,
        "Semi-Major Axis(m)": 6980739.136638005,
        "Time(s)": 0
    },
    {
        "Altitude(m)": 612708.3235912673,
        "Argument of Periapsis(deg)": 0.00010418945913296404,
        "Eccentricity": 0.0,
        "Inclination(deg)": 60.0,
        "Latitude(deg)": -28.64777918275925,
        "Longitude(deg)": -116.7296839045567,
        "Mean Anomaly(deg)": 213.34740614546183,
        "RAAN(deg)": 144.99957995086027,
        "Satellite Name": "Test1 651",
        "Satellite Number": 651,
        "Semi-Major Axis(m)": 6980739.136638005,
        "Time(s)": 10
    }
]